[
  {
    "city": "Vallejo",
    "state": "CA",
    "postalCode": "94591",
    "id": 1,
    "panels": 4,
    "capacity": 6.0,
    "coordinate": { "lat": 38.10476999999999, "lng": -122.193849 },
    "address": "637 Britannia Drive "
  },
  {
    "city": "Union City",
    "state": "CA",
    "postalCode": "94587",
    "id": 2,
    "panels": 3,
    "capacity": 4.5,
    "coordinate": { "lat": 37.593981, "lng": -122.059762 },
    "address": "31353 Santa Elena Way "
  },
  {
    "city": "Castro Valley",
    "state": "CA",
    "postalCode": "94546",
    "id": 3,
    "panels": 6,
    "capacity": 9.0,
    "coordinate": { "lat": 37.70382, "lng": -122.091054 },
    "address": "19416 Barclay Road "
  },
  {
    "city": "Castro Valley",
    "state": "CA",
    "postalCode": "94546",
    "id": 4,
    "panels": 3,
    "capacity": 4.5,
    "coordinate": { "lat": 37.689189, "lng": -122.076775 },
    "address": "2313 Vegas Avenue "
  },
  {
    "city": "Fremont",
    "state": "CA",
    "postalCode": "94536",
    "id": 5,
    "panels": 9,
    "capacity": 13.5,
    "coordinate": { "lat": 37.562256, "lng": -121.976451 },
    "address": "38676 Greenwich Circle "
  },
  {
    "city": "Oakland",
    "state": "CA",
    "postalCode": "94601",
    "id": 6,
    "panels": 9,
    "capacity": 13.5,
    "coordinate": { "lat": 37.783431, "lng": -122.228238 },
    "address": "1732 27th Avenue "
  },
  {
    "city": "Berkeley",
    "state": "CA",
    "postalCode": "94709",
    "id": 7,
    "panels": 9,
    "capacity": 13.5,
    "coordinate": { "lat": 37.877894, "lng": -122.266436 },
    "address": "1643 Oxford Street R C"
  },
  {
    "city": "Hayward",
    "state": "CA",
    "postalCode": "94544",
    "id": 8,
    "panels": 8,
    "capacity": 12.0,
    "coordinate": { "lat": 37.6410262, "lng": -122.0864272 },
    "address": "26466 Mockingbird Lane "
  },
  {
    "city": "Livermore",
    "state": "CA",
    "postalCode": "94551",
    "id": 9,
    "panels": 5,
    "capacity": 7.5,
    "coordinate": { "lat": 37.710745, "lng": -121.732765 },
    "address": "1004 Bellflower Street "
  },
  {
    "city": "Fremont",
    "state": "CA",
    "postalCode": "94555",
    "id": 10,
    "panels": 3,
    "capacity": 4.5,
    "coordinate": { "lat": 37.5666441, "lng": -122.0444344 },
    "address": "4738 Mallard Common "
  },
  {
    "city": "Fremont",
    "state": "CA",
    "postalCode": "94536",
    "id": 11,
    "panels": 9,
    "capacity": 13.5,
    "coordinate": { "lat": 37.557882, "lng": -121.986823 },
    "address": "2755 Country Drive #244"
  },
  {
    "city": "Fremont",
    "state": "CA",
    "postalCode": "94536",
    "id": 12,
    "panels": 2,
    "capacity": 3.0,
    "coordinate": { "lat": 37.582453, "lng": -121.994476 },
    "address": "145 Grau Drive "
  },
  {
    "city": "Pleasanton",
    "state": "CA",
    "postalCode": "94588",
    "id": 13,
    "panels": 8,
    "capacity": 12.0,
    "coordinate": { "lat": 37.6992001, "lng": -121.8703701 },
    "address": "3959 Fairlands Drive "
  },
  {
    "city": "San Lorenzo",
    "state": "CA",
    "postalCode": "94580",
    "id": 14,
    "panels": 8,
    "capacity": 12.0,
    "coordinate": { "lat": 37.67869, "lng": -122.117142 },
    "address": "90 Via Verde "
  },
  {
    "city": "Oakland",
    "state": "CA",
    "postalCode": "94608",
    "id": 15,
    "panels": 2,
    "capacity": 3.0,
    "coordinate": { "lat": 37.84557849999999, "lng": -122.2825201 },
    "address": "6214 Herzog Street "
  },
  {
    "city": "Oakland",
    "state": "CA",
    "postalCode": "94621",
    "id": 16,
    "panels": 9,
    "capacity": 13.5,
    "coordinate": { "lat": 37.767671, "lng": -122.202326 },
    "address": "1452 55th Avenue B"
  },
  {
    "city": "Fremont",
    "state": "CA",
    "postalCode": "94555",
    "id": 17,
    "panels": 6,
    "capacity": 9.0,
    "coordinate": { "lat": 37.5738888, "lng": -122.0460256 },
    "address": "4255 Tanager Common "
  },
  {
    "city": "Oakland",
    "state": "CA",
    "postalCode": "94605",
    "id": 18,
    "panels": 5,
    "capacity": 7.5,
    "coordinate": { "lat": 37.752039, "lng": -122.11822 },
    "address": "11150 Sun Valley Drive "
  },
  {
    "city": "Oakland",
    "state": "CA",
    "postalCode": "94605",
    "id": 19,
    "panels": 3,
    "capacity": 4.5,
    "coordinate": { "lat": 37.7705346, "lng": -122.1907449 },
    "address": "2515 60th Avenue "
  },
  {
    "city": "San Leandro",
    "state": "CA",
    "postalCode": "94577",
    "id": 20,
    "panels": 7,
    "capacity": 10.5,
    "coordinate": { "lat": 37.72956300000001, "lng": -122.147074 },
    "address": "1011 San Jose Street "
  },
  {
    "city": "Castro Valley",
    "state": "CA",
    "postalCode": "94546",
    "id": 21,
    "panels": 2,
    "capacity": 3.0,
    "coordinate": { "lat": 37.696683, "lng": -122.085865 },
    "address": "20375 Wisteria Street "
  },
  {
    "city": "Concord",
    "state": "CA",
    "postalCode": "94519",
    "id": 22,
    "panels": 2,
    "capacity": 3.0,
    "coordinate": { "lat": 37.9966039, "lng": -122.0280747 },
    "address": "2531 Prestwick Avenue "
  },
  {
    "city": "Oakland",
    "state": "CA",
    "postalCode": "94605",
    "id": 23,
    "panels": 2,
    "capacity": 3.0,
    "coordinate": { "lat": 37.768532, "lng": -122.180694 },
    "address": "2747 68th Avenue "
  },
  {
    "city": "Oakland",
    "state": "CA",
    "postalCode": "94621",
    "id": 24,
    "panels": 10,
    "capacity": 15.0,
    "coordinate": { "lat": 37.7497401, "lng": -122.1762833 },
    "address": "1314 89th Avenue "
  },
  {
    "city": "Livermore",
    "state": "CA",
    "postalCode": "94550",
    "id": 25,
    "panels": 2,
    "capacity": 3.0,
    "coordinate": { "lat": 37.690199, "lng": -121.7411119 },
    "address": "4439 Gale Street "
  },
  {
    "city": "Mountain View",
    "state": "CA",
    "postalCode": "94043",
    "id": 26,
    "panels": 8,
    "capacity": 12.0,
    "coordinate": { "lat": 37.390391, "lng": -122.060062 },
    "address": "152 Holly Court "
  },
  {
    "city": "Fremont",
    "state": "CA",
    "postalCode": "94538",
    "id": 27,
    "panels": 5,
    "capacity": 7.5,
    "coordinate": { "lat": 37.514834, "lng": -121.95302 },
    "address": "4016 Doane Street "
  },
  {
    "city": "Hayward",
    "state": "CA",
    "postalCode": "94541",
    "id": 28,
    "panels": 8,
    "capacity": 12.0,
    "coordinate": { "lat": 37.6618825, "lng": -122.0904612 },
    "address": "3215 Madsen Street "
  },
  {
    "city": "Oakland",
    "state": "CA",
    "postalCode": "94621",
    "id": 29,
    "panels": 2,
    "capacity": 3.0,
    "coordinate": { "lat": 37.757904, "lng": -122.206479 },
    "address": "732 Kevin Court "
  },
  {
    "city": "Pleasanton",
    "state": "CA",
    "postalCode": "94588",
    "id": 30,
    "panels": 10,
    "capacity": 15.0,
    "coordinate": { "lat": 37.680463, "lng": -121.860128 },
    "address": "3377 Sandstone Court "
  },
  {
    "city": "Mountain View",
    "state": "CA",
    "postalCode": "94043",
    "id": 31,
    "panels": 5,
    "capacity": 7.5,
    "coordinate": { "lat": 37.399505, "lng": -122.077478 },
    "address": "894 Windmill Park Lane "
  },
  {
    "city": "Hayward",
    "state": "CA",
    "postalCode": "94541",
    "id": 32,
    "panels": 9,
    "capacity": 13.5,
    "coordinate": { "lat": 37.6629263, "lng": -122.091801 },
    "address": "618 Staley Avenue "
  },
  {
    "city": "Hayward",
    "state": "CA",
    "postalCode": "94541",
    "id": 33,
    "panels": 9,
    "capacity": 13.5,
    "coordinate": { "lat": 37.680081, "lng": -122.074569 },
    "address": "1528 Stafford Avenue "
  },
  {
    "city": "Oakland",
    "state": "CA",
    "postalCode": "94601",
    "id": 34,
    "panels": 10,
    "capacity": 15.0,
    "coordinate": { "lat": 37.783471, "lng": -122.2149729 },
    "address": "3578 Galindo Street "
  },
  {
    "city": "Hayward",
    "state": "CA",
    "postalCode": "94545",
    "id": 35,
    "panels": 5,
    "capacity": 7.5,
    "coordinate": { "lat": 37.642952, "lng": -122.098647 },
    "address": "25538 Calaroga Avenue "
  },
  {
    "city": "San Leandro",
    "state": "CA",
    "postalCode": "94578",
    "id": 36,
    "panels": 7,
    "capacity": 10.5,
    "coordinate": { "lat": 37.70179340000001, "lng": -122.1192658 },
    "address": "1521 159th Avenue "
  },
  {
    "city": "Hayward",
    "state": "CA",
    "postalCode": "94545",
    "id": 37,
    "panels": 5,
    "capacity": 7.5,
    "coordinate": { "lat": 37.648857, "lng": -122.112388 },
    "address": "24147 Clinton Court "
  },
  {
    "city": "Hayward",
    "state": "CA",
    "postalCode": "94541",
    "id": 38,
    "panels": 5,
    "capacity": 7.5,
    "coordinate": { "lat": 37.682588, "lng": -122.112121 },
    "address": "236 Alden Road "
  },
  {
    "city": "Oakland",
    "state": "CA",
    "postalCode": "94601",
    "id": 39,
    "panels": 9,
    "capacity": 13.5,
    "coordinate": { "lat": 37.776415, "lng": -122.209418 },
    "address": "2042 High Street "
  },
  {
    "city": "Fremont",
    "state": "CA",
    "postalCode": "94536",
    "id": 40,
    "panels": 6,
    "capacity": 9.0,
    "coordinate": { "lat": 37.555484, "lng": -122.012744 },
    "address": "36043 Soapberry Commons "
  },
  {
    "city": "Hayward",
    "state": "CA",
    "postalCode": "94544",
    "id": 41,
    "panels": 2,
    "capacity": 3.0,
    "coordinate": { "lat": 37.61744100000001, "lng": -122.038397 },
    "address": "31130 Meadowbrook Avenue "
  },
  {
    "city": "Berkeley",
    "state": "CA",
    "postalCode": "94710",
    "id": 42,
    "panels": 8,
    "capacity": 12.0,
    "coordinate": { "lat": 37.8676351, "lng": -122.2938418 },
    "address": "2035 Ninth Street R A"
  },
  {
    "city": "Fremont",
    "state": "CA",
    "postalCode": "94555",
    "id": 43,
    "panels": 10,
    "capacity": 15.0,
    "coordinate": { "lat": 37.584941, "lng": -122.03291 },
    "address": "2807 Huxley Place "
  },
  {
    "city": "Berkeley",
    "state": "CA",
    "postalCode": "94708",
    "id": 44,
    "panels": 3,
    "capacity": 4.5,
    "coordinate": { "lat": 37.884824, "lng": -122.249694 },
    "address": "169 Avenida Drive M"
  },
  {
    "city": "Oakland",
    "state": "CA",
    "postalCode": "94610",
    "id": 45,
    "panels": 4,
    "capacity": 6.0,
    "coordinate": { "lat": 37.8147324, "lng": -122.25217 },
    "address": "281 MacArthur Boulevard "
  },
  {
    "city": "Fremont",
    "state": "CA",
    "postalCode": "94536",
    "id": 46,
    "panels": 6,
    "capacity": 9.0,
    "coordinate": { "lat": 37.543515, "lng": -122.008143 },
    "address": "4876 Norris Road "
  },
  {
    "city": "Oakland",
    "state": "CA",
    "postalCode": "94605",
    "id": 47,
    "panels": 3,
    "capacity": 4.5,
    "coordinate": { "lat": 37.765568, "lng": -122.129528 },
    "address": "19 Heritage "
  },
  {
    "city": "Livermore",
    "state": "CA",
    "postalCode": "94551",
    "id": 48,
    "panels": 7,
    "capacity": 10.5,
    "coordinate": { "lat": 37.690035, "lng": -121.759468 },
    "address": "330 Michell Court "
  },
  {
    "city": "Castro Valley",
    "state": "CA",
    "postalCode": "94552",
    "id": 49,
    "panels": 10,
    "capacity": 15.0,
    "coordinate": { "lat": 37.6992206, "lng": -122.0300502 },
    "address": "6145 East Castro Valley Boulevard "
  },
  {
    "city": "Castro Valley",
    "state": "CA",
    "postalCode": "94546",
    "id": 50,
    "panels": 8,
    "capacity": 12.0,
    "coordinate": { "lat": 37.70902600000001, "lng": -122.059504 },
    "address": "18789 Crane Avenue "
  },
  {
    "city": "Oakland",
    "state": "CA",
    "postalCode": "94609",
    "id": 51,
    "panels": 10,
    "capacity": 15.0,
    "coordinate": { "lat": 37.85015, "lng": -122.266142 },
    "address": "6431 Shattuck Avenue B"
  },
  {
    "city": "Hayward",
    "state": "CA",
    "postalCode": "94544",
    "id": 52,
    "panels": 5,
    "capacity": 7.5,
    "coordinate": { "lat": 37.641711, "lng": -122.078659 },
    "address": "26563 Chisholm Court "
  },
  {
    "city": "San Leandro",
    "state": "CA",
    "postalCode": "94577",
    "id": 53,
    "panels": 6,
    "capacity": 9.0,
    "coordinate": { "lat": 37.72780789999999, "lng": -122.152331 },
    "address": "424 Callan Avenue #216"
  },
  {
    "city": "Hayward",
    "state": "CA",
    "postalCode": "94544",
    "id": 54,
    "panels": 6,
    "capacity": 9.0,
    "coordinate": { "lat": 37.635859, "lng": -122.076923 },
    "address": "918 Cheryl Ann Circle "
  },
  {
    "city": "Union City",
    "state": "CA",
    "postalCode": "94587",
    "id": 55,
    "panels": 9,
    "capacity": 13.5,
    "coordinate": { "lat": 37.591721, "lng": -122.075993 },
    "address": "4231 Miramonte Way "
  },
  {
    "city": "San Lorenzo",
    "state": "CA",
    "postalCode": "94580",
    "id": 56,
    "panels": 10,
    "capacity": 15.0,
    "coordinate": { "lat": 37.670738, "lng": -122.147019 },
    "address": "1987 Boxer Court "
  },
  {
    "city": "Berkeley",
    "state": "CA",
    "postalCode": "94704",
    "id": 57,
    "panels": 8,
    "capacity": 12.0,
    "coordinate": { "lat": 37.862903, "lng": -122.2595092 },
    "address": "2414 Parker Street #R 16"
  },
  {
    "city": "Mountain View",
    "state": "CA",
    "postalCode": "94040",
    "id": 58,
    "panels": 2,
    "capacity": 3.0,
    "coordinate": { "lat": 37.4068693, "lng": -122.1129728 },
    "address": "2685 California Street #APT 305"
  },
  {
    "city": "Castro Valley",
    "state": "CA",
    "postalCode": "94552",
    "id": 59,
    "panels": 9,
    "capacity": 13.5,
    "coordinate": { "lat": 37.7157257, "lng": -122.0270913 },
    "address": "6925 Lariat Lane "
  },
  {
    "city": "Hayward",
    "state": "CA",
    "postalCode": "94541",
    "id": 60,
    "panels": 5,
    "capacity": 7.5,
    "coordinate": { "lat": 37.6678961, "lng": -122.0832649 },
    "address": "22825 Paseo Place "
  },
  {
    "city": "Union City",
    "state": "CA",
    "postalCode": "94587",
    "id": 61,
    "panels": 8,
    "capacity": 12.0,
    "coordinate": { "lat": 37.60442, "lng": -122.069607 },
    "address": "2902 Flint Street "
  },
  {
    "city": "Concord",
    "state": "CA",
    "postalCode": "94521",
    "id": 62,
    "panels": 8,
    "capacity": 12.0,
    "coordinate": { "lat": 37.94042, "lng": -121.944464 },
    "address": "1238 Roanwood Way "
  },
  {
    "city": "Hayward",
    "state": "CA",
    "postalCode": "94542",
    "id": 63,
    "panels": 4,
    "capacity": 6.0,
    "coordinate": { "lat": 37.661345, "lng": -122.032784 },
    "address": "3835 Oakes Drive "
  },
  {
    "city": "Pleasanton",
    "state": "CA",
    "postalCode": "94588",
    "id": 64,
    "panels": 7,
    "capacity": 10.5,
    "coordinate": { "lat": 37.6991919, "lng": -121.85909 },
    "address": "3538 Mendenhall Court "
  },
  {
    "city": "Hayward",
    "state": "CA",
    "postalCode": "94542",
    "id": 65,
    "panels": 10,
    "capacity": 15.0,
    "coordinate": { "lat": 37.65444100000001, "lng": -122.067741 },
    "address": "1011 Devon Drive "
  },
  {
    "city": "Hayward",
    "state": "CA",
    "postalCode": "94541",
    "id": 66,
    "panels": 7,
    "capacity": 10.5,
    "coordinate": { "lat": 37.680829, "lng": -122.07335 },
    "address": "22538 6th Street "
  },
  {
    "city": "Berkeley",
    "state": "CA",
    "postalCode": "94702",
    "id": 67,
    "panels": 3,
    "capacity": 4.5,
    "coordinate": { "lat": 37.8591054, "lng": -122.285823 },
    "address": "1219 Carleton Street M"
  },
  {
    "city": "El Cerrito",
    "state": "CA",
    "postalCode": "94530",
    "id": 68,
    "panels": 9,
    "capacity": 13.5,
    "coordinate": { "lat": 37.9028101, "lng": -122.2981152 },
    "address": "422 Richmond Street "
  },
  {
    "city": "Oakland",
    "state": "CA",
    "postalCode": "94618",
    "id": 69,
    "panels": 10,
    "capacity": 15.0,
    "coordinate": { "lat": 37.839058, "lng": -122.256035 },
    "address": "5264 Shafter Avenue "
  },
  {
    "city": "Union City",
    "state": "CA",
    "postalCode": "94587",
    "id": 70,
    "panels": 3,
    "capacity": 4.5,
    "coordinate": { "lat": 37.580691, "lng": -122.082773 },
    "address": "5732 Jean Drive "
  },
  {
    "city": "Fremont",
    "state": "CA",
    "postalCode": "94536",
    "id": 71,
    "panels": 4,
    "capacity": 6.0,
    "coordinate": { "lat": 37.5516245, "lng": -121.9872735 },
    "address": "3600 Pennsylvania Avenue #APT 6"
  },
  {
    "city": "Fremont",
    "state": "CA",
    "postalCode": "94536",
    "id": 72,
    "panels": 10,
    "capacity": 15.0,
    "coordinate": { "lat": 37.555306, "lng": -122.003412 },
    "address": "37675 Fremont Boulevard #APT 42"
  },
  {
    "city": "Livermore",
    "state": "CA",
    "postalCode": "94550",
    "id": 73,
    "panels": 8,
    "capacity": 12.0,
    "coordinate": { "lat": 37.682649, "lng": -121.733308 },
    "address": "4981 Shirley Way "
  },
  {
    "city": "Fremont",
    "state": "CA",
    "postalCode": "94539",
    "id": 74,
    "panels": 7,
    "capacity": 10.5,
    "coordinate": { "lat": 37.546996, "lng": -121.951627 },
    "address": "1300 Lemos Lane "
  },
  {
    "city": "Livermore",
    "state": "CA",
    "postalCode": "94550",
    "id": 75,
    "panels": 9,
    "capacity": 13.5,
    "coordinate": { "lat": 37.653774, "lng": -121.796632 },
    "address": "970 Old Oak Road "
  },
  {
    "city": "Oakland",
    "state": "CA",
    "postalCode": "94610",
    "id": 76,
    "panels": 2,
    "capacity": 3.0,
    "coordinate": { "lat": 37.8058663, "lng": -122.2493644 },
    "address": "441 Merritt Avenue "
  },
  {
    "city": "Hayward",
    "state": "CA",
    "postalCode": "94544",
    "id": 77,
    "panels": 9,
    "capacity": 13.5,
    "coordinate": { "lat": 37.628092, "lng": -122.072806 },
    "address": "1061 Sumatra Street "
  },
  {
    "city": "Newark",
    "state": "CA",
    "postalCode": "94560",
    "id": 78,
    "panels": 2,
    "capacity": 3.0,
    "coordinate": { "lat": 37.5261943, "lng": -122.0304698 },
    "address": "37600 Sycamore Street "
  },
  {
    "city": "Castro Valley",
    "state": "CA",
    "postalCode": "94546",
    "id": 79,
    "panels": 6,
    "capacity": 9.0,
    "coordinate": { "lat": 37.6887201, "lng": -122.0675144 },
    "address": "22062 Cameron Street "
  },
  {
    "city": "Livermore",
    "state": "CA",
    "postalCode": "94550",
    "id": 80,
    "panels": 8,
    "capacity": 12.0,
    "coordinate": { "lat": 37.70168, "lng": -121.701526 },
    "address": "7573 National Drive "
  },
  {
    "city": "Hayward",
    "state": "CA",
    "postalCode": "94541",
    "id": 81,
    "panels": 4,
    "capacity": 6.0,
    "coordinate": { "lat": 37.660696, "lng": -122.100733 },
    "address": "23501 Ida Lane "
  },
  {
    "city": "Pleasanton",
    "state": "CA",
    "postalCode": "94566",
    "id": 82,
    "panels": 4,
    "capacity": 6.0,
    "coordinate": { "lat": 37.6681878, "lng": -121.8514835 },
    "address": "29 Vista Flores "
  },
  {
    "city": "Berkeley",
    "state": "CA",
    "postalCode": "94707",
    "id": 83,
    "panels": 10,
    "capacity": 15.0,
    "coordinate": { "lat": 37.896256, "lng": -122.284523 },
    "address": "619 Colusa Avenue "
  },
  {
    "city": "San Leandro",
    "state": "CA",
    "postalCode": "94577",
    "id": 84,
    "panels": 5,
    "capacity": 7.5,
    "coordinate": { "lat": 37.7329999, "lng": -122.158683 },
    "address": "158 Euclid Avenue "
  },
  {
    "city": "Piedmont",
    "state": "CA",
    "postalCode": "94610",
    "id": 85,
    "panels": 2,
    "capacity": 3.0,
    "coordinate": { "lat": 37.815231, "lng": -122.226949 },
    "address": "238 La Salle Avenue "
  },
  {
    "city": "Berkeley",
    "state": "CA",
    "postalCode": "94704",
    "id": 86,
    "panels": 5,
    "capacity": 7.5,
    "coordinate": { "lat": 37.861126, "lng": -122.270083 },
    "address": "1937 Carleton Street M"
  },
  {
    "city": "Pleasanton",
    "state": "CA",
    "postalCode": "94566",
    "id": 87,
    "panels": 10,
    "capacity": 15.0,
    "coordinate": { "lat": 37.6631486, "lng": -121.862728 },
    "address": "3819 Vineyard Avenue #59"
  },
  {
    "city": "Pleasanton",
    "state": "CA",
    "postalCode": "94566",
    "id": 88,
    "panels": 10,
    "capacity": 15.0,
    "coordinate": { "lat": 37.667338, "lng": -121.849663 },
    "address": "3027 Badger Drive "
  },
  {
    "city": "Newark",
    "state": "CA",
    "postalCode": "94560",
    "id": 89,
    "panels": 5,
    "capacity": 7.5,
    "coordinate": { "lat": 37.538738, "lng": -122.024679 },
    "address": "5715 Saint Matthew Drive "
  },
  {
    "city": "Berkeley",
    "state": "CA",
    "postalCode": "94709",
    "id": 90,
    "panels": 8,
    "capacity": 12.0,
    "coordinate": { "lat": 37.8792662, "lng": -122.2715332 },
    "address": "1532 Milvia Street R A"
  },
  {
    "city": "Mountain View",
    "state": "CA",
    "postalCode": "94040",
    "id": 91,
    "panels": 10,
    "capacity": 15.0,
    "coordinate": { "lat": 37.36696999999999, "lng": -122.089049 },
    "address": "1954 Wilson Court "
  },
  {
    "city": "Fremont",
    "state": "CA",
    "postalCode": "94538",
    "id": 92,
    "panels": 7,
    "capacity": 10.5,
    "coordinate": { "lat": 37.522428, "lng": -121.96178 },
    "address": "42223 Edgewood Street "
  },
  {
    "city": "Dublin",
    "state": "CA",
    "postalCode": "94568",
    "id": 93,
    "panels": 7,
    "capacity": 10.5,
    "coordinate": { "lat": 37.711885, "lng": -121.884051 },
    "address": "4936 Sequoia Avenue "
  },
  {
    "city": "Fremont",
    "state": "CA",
    "postalCode": "94538",
    "id": 94,
    "panels": 9,
    "capacity": 13.5,
    "coordinate": { "lat": 37.5343786, "lng": -121.9588068 },
    "address": "3862 Almond Avenue "
  },
  {
    "city": "Alameda",
    "state": "CA",
    "postalCode": "94501",
    "id": 95,
    "panels": 6,
    "capacity": 9.0,
    "coordinate": { "lat": 37.7823187, "lng": -122.2678109 },
    "address": "11 Eclipse Court "
  },
  {
    "city": "Mountain View",
    "state": "CA",
    "postalCode": "94043",
    "id": 96,
    "panels": 10,
    "capacity": 15.0,
    "coordinate": { "lat": 37.409802, "lng": -122.100957 },
    "address": "369 Ruth Avenue "
  },
  {
    "city": "Piedmont",
    "state": "CA",
    "postalCode": "94611",
    "id": 97,
    "panels": 2,
    "capacity": 3.0,
    "coordinate": { "lat": 37.820272, "lng": -122.2195409 },
    "address": "2 Sotelo Avenue "
  },
  {
    "city": "Berkeley",
    "state": "CA",
    "postalCode": "94708",
    "id": 98,
    "panels": 8,
    "capacity": 12.0,
    "coordinate": { "lat": 37.8830528, "lng": -122.2632462 },
    "address": "1358 Scenic Avenue R B"
  },
  {
    "city": "Mountain View",
    "state": "CA",
    "postalCode": "94043",
    "id": 99,
    "panels": 10,
    "capacity": 15.0,
    "coordinate": { "lat": 37.3996523, "lng": -122.0796285 },
    "address": "928 Wright Avenue #UNIT 505"
  },
  {
    "city": "Hayward",
    "state": "CA",
    "postalCode": "94541",
    "id": 100,
    "panels": 4,
    "capacity": 6.0,
    "coordinate": { "lat": 37.6678718, "lng": -122.0917029 },
    "address": "450 C Street "
  },
  {
    "city": "Fremont",
    "state": "CA",
    "postalCode": "94536",
    "id": 101,
    "panels": 10,
    "capacity": 15.0,
    "coordinate": { "lat": 37.55069599999999, "lng": -122.007419 },
    "address": "4444 Central Avenue #APT 305"
  },
  {
    "city": "San Leandro",
    "state": "CA",
    "postalCode": "94577",
    "id": 102,
    "panels": 10,
    "capacity": 15.0,
    "coordinate": { "lat": 37.7238372, "lng": -122.1334006 },
    "address": "2086 Hillside Drive "
  },
  {
    "city": "Castro Valley",
    "state": "CA",
    "postalCode": "94546",
    "id": 103,
    "panels": 5,
    "capacity": 7.5,
    "coordinate": { "lat": 37.6990989, "lng": -122.085039 },
    "address": "20097 Butterfield Drive "
  },
  {
    "city": "Oakland",
    "state": "CA",
    "postalCode": "94611",
    "id": 104,
    "panels": 8,
    "capacity": 12.0,
    "coordinate": { "lat": 37.829801, "lng": -122.216252 },
    "address": "6100 Bullard Drive "
  },
  {
    "city": "Fremont",
    "state": "CA",
    "postalCode": "94536",
    "id": 105,
    "panels": 2,
    "capacity": 3.0,
    "coordinate": { "lat": 37.5534511, "lng": -122.0133239 },
    "address": "37122 Contra Costa Avenue "
  },
  {
    "city": "Alameda",
    "state": "CA",
    "postalCode": "94501",
    "id": 106,
    "panels": 9,
    "capacity": 13.5,
    "coordinate": { "lat": 37.764288, "lng": -122.268645 },
    "address": "565 Amber Isle "
  },
  {
    "city": "Livermore",
    "state": "CA",
    "postalCode": "94551",
    "id": 107,
    "panels": 7,
    "capacity": 10.5,
    "coordinate": { "lat": 37.6958861, "lng": -121.7952093 },
    "address": "465 Humboldt Way "
  },
  {
    "city": "Oakland",
    "state": "CA",
    "postalCode": "94611",
    "id": 108,
    "panels": 10,
    "capacity": 15.0,
    "coordinate": { "lat": 37.8387892, "lng": -122.1996064 },
    "address": "7237 Wild Currant Way "
  },
  {
    "city": "Livermore",
    "state": "CA",
    "postalCode": "94551",
    "id": 109,
    "panels": 5,
    "capacity": 7.5,
    "coordinate": { "lat": 37.689729, "lng": -121.791712 },
    "address": "682 Brighton Way "
  },
  {
    "city": "San Leandro",
    "state": "CA",
    "postalCode": "94579",
    "id": 110,
    "panels": 10,
    "capacity": 15.0,
    "coordinate": { "lat": 37.6950209, "lng": -122.155653 },
    "address": "1352 Purdue Street "
  },
  {
    "city": "Alameda",
    "state": "CA",
    "postalCode": "94502",
    "id": 111,
    "panels": 8,
    "capacity": 12.0,
    "coordinate": { "lat": 37.739659, "lng": -122.255689 },
    "address": "72 Salmon Road "
  },
  {
    "city": "Fremont",
    "state": "CA",
    "postalCode": "94538",
    "id": 112,
    "panels": 9,
    "capacity": 13.5,
    "coordinate": { "lat": 37.5420236, "lng": -121.9926731 },
    "address": "4511 Sloat Road "
  },
  {
    "city": "Fremont",
    "state": "CA",
    "postalCode": "94536",
    "id": 113,
    "panels": 7,
    "capacity": 10.5,
    "coordinate": { "lat": 37.5538472, "lng": -122.0122099 },
    "address": "4444 Hansen Avenue #APT 224"
  },
  {
    "city": "Fremont",
    "state": "CA",
    "postalCode": "94536",
    "id": 114,
    "panels": 8,
    "capacity": 12.0,
    "coordinate": { "lat": 37.563275, "lng": -122.026806 },
    "address": "35805 Alcazar Court "
  },
  {
    "city": "Berkeley",
    "state": "CA",
    "postalCode": "94702",
    "id": 115,
    "panels": 7,
    "capacity": 10.5,
    "coordinate": { "lat": 37.8692812, "lng": -122.2846077 },
    "address": "1357 Addison Street "
  },
  {
    "city": "Berkeley",
    "state": "CA",
    "postalCode": "94710",
    "id": 116,
    "panels": 2,
    "capacity": 3.0,
    "coordinate": { "lat": 37.8685768, "lng": -122.2934965 },
    "address": "1040 University Avenue #R 208"
  },
  {
    "city": "Hayward",
    "state": "CA",
    "postalCode": "94545",
    "id": 117,
    "panels": 10,
    "capacity": 15.0,
    "coordinate": { "lat": 37.622266, "lng": -122.081085 },
    "address": "1821 Catalpa Way "
  },
  {
    "city": "Alameda",
    "state": "CA",
    "postalCode": "94502",
    "id": 118,
    "panels": 10,
    "capacity": 15.0,
    "coordinate": { "lat": 37.736838, "lng": -122.25143 },
    "address": "1076 Foster Street "
  },
  {
    "city": "Oakland",
    "state": "CA",
    "postalCode": "94602",
    "id": 119,
    "panels": 7,
    "capacity": 10.5,
    "coordinate": { "lat": 37.7906226, "lng": -122.2090177 },
    "address": "2732 Humboldt Avenue "
  },
  {
    "city": "Union City",
    "state": "CA",
    "postalCode": "94587",
    "id": 120,
    "panels": 9,
    "capacity": 13.5,
    "coordinate": { "lat": 37.6053127, "lng": -122.0528926 },
    "address": "2500 Medallion Drive #APT 148"
  },
  {
    "city": "Oakland",
    "state": "CA",
    "postalCode": "94611",
    "id": 121,
    "panels": 2,
    "capacity": 3.0,
    "coordinate": { "lat": 37.83019, "lng": -122.249552 },
    "address": "4329 Howe Street "
  },
  {
    "city": "San Leandro",
    "state": "CA",
    "postalCode": "94578",
    "id": 122,
    "panels": 5,
    "capacity": 7.5,
    "coordinate": { "lat": 37.697031, "lng": -122.11392 },
    "address": "16303 Mateo Street "
  },
  {
    "city": "Oakland",
    "state": "CA",
    "postalCode": "94619",
    "id": 123,
    "panels": 4,
    "capacity": 6.0,
    "coordinate": { "lat": 37.799782, "lng": -122.178871 },
    "address": "439 Crestmont Drive "
  },
  {
    "city": "Dublin",
    "state": "CA",
    "postalCode": "94568",
    "id": 124,
    "panels": 10,
    "capacity": 15.0,
    "coordinate": { "lat": 37.713863, "lng": -121.9110367 },
    "address": "6716 South Mariposa Lane "
  },
  {
    "city": "Hayward",
    "state": "CA",
    "postalCode": "94544",
    "id": 125,
    "panels": 4,
    "capacity": 6.0,
    "coordinate": { "lat": 37.647646, "lng": -122.066458 },
    "address": "654 Laurette Place "
  },
  {
    "city": "Fremont",
    "state": "CA",
    "postalCode": "94539",
    "id": 126,
    "panels": 3,
    "capacity": 4.5,
    "coordinate": { "lat": 37.526895, "lng": -121.92052 },
    "address": "43626 Bryant Street "
  },
  {
    "city": "Castro Valley",
    "state": "CA",
    "postalCode": "94552",
    "id": 127,
    "panels": 10,
    "capacity": 15.0,
    "coordinate": { "lat": 37.717206, "lng": -122.057019 },
    "address": "5725 Medallion Court "
  },
  {
    "city": "Suisun City",
    "state": "CA",
    "postalCode": "94585",
    "id": 128,
    "panels": 6,
    "capacity": 9.0,
    "coordinate": { "lat": 38.262862, "lng": -121.986278 },
    "address": "1753 Carswell Court "
  },
  {
    "city": "Union City",
    "state": "CA",
    "postalCode": "94587",
    "id": 129,
    "panels": 2,
    "capacity": 3.0,
    "coordinate": { "lat": 37.6085241, "lng": -122.0190805 },
    "address": "33300 Mission Boulevard #APT 174"
  },
  {
    "city": "San Leandro",
    "state": "CA",
    "postalCode": "94579",
    "id": 130,
    "panels": 3,
    "capacity": 4.5,
    "coordinate": { "lat": 37.685391, "lng": -122.152332 },
    "address": "1349 Burkhart Avenue "
  },
  {
    "city": "Oakland",
    "state": "CA",
    "postalCode": "94602",
    "id": 131,
    "panels": 3,
    "capacity": 4.5,
    "coordinate": { "lat": 37.8019867, "lng": -122.2252044 },
    "address": "1515 Excelsior Avenue "
  },
  {
    "city": "Fremont",
    "state": "CA",
    "postalCode": "94538",
    "id": 132,
    "panels": 2,
    "capacity": 3.0,
    "coordinate": { "lat": 37.540659, "lng": -121.957693 },
    "address": "40700 Penn Lane "
  },
  {
    "city": "Fairfield",
    "state": "CA",
    "postalCode": "94534",
    "id": 133,
    "panels": 9,
    "capacity": 13.5,
    "coordinate": { "lat": 38.198231, "lng": -122.106795 },
    "address": "3388 Thomasson Lane "
  },
  {
    "city": "Livermore",
    "state": "CA",
    "postalCode": "94550",
    "id": 134,
    "panels": 2,
    "capacity": 3.0,
    "coordinate": { "lat": 37.679629, "lng": -121.739175 },
    "address": "1226 Blossom Circle "
  },
  {
    "city": "Hayward",
    "state": "CA",
    "postalCode": "94545",
    "id": 135,
    "panels": 6,
    "capacity": 9.0,
    "coordinate": { "lat": 37.6368362, "lng": -122.1119208 },
    "address": "25800 Industrial Boulevard V"
  },
  {
    "city": "Berkeley",
    "state": "CA",
    "postalCode": "94710",
    "id": 136,
    "panels": 5,
    "capacity": 7.5,
    "coordinate": { "lat": 37.869121, "lng": -122.296661 },
    "address": "1909 Seventh Street M"
  },
  {
    "city": "Hayward",
    "state": "CA",
    "postalCode": "94545",
    "id": 137,
    "panels": 6,
    "capacity": 9.0,
    "coordinate": { "lat": 37.636421, "lng": -122.102691 },
    "address": "26334 Adrian Avenue "
  },
  {
    "city": "Oakland",
    "state": "CA",
    "postalCode": "94619",
    "id": 138,
    "panels": 3,
    "capacity": 4.5,
    "coordinate": { "lat": 37.774636, "lng": -122.195447 },
    "address": "5430 Brookdale Avenue "
  },
  {
    "city": "Livermore",
    "state": "CA",
    "postalCode": "94550",
    "id": 139,
    "panels": 4,
    "capacity": 6.0,
    "coordinate": { "lat": 37.6841886, "lng": -121.7340865 },
    "address": "4971 Janet Court "
  },
  {
    "city": "Fremont",
    "state": "CA",
    "postalCode": "94536",
    "id": 140,
    "panels": 7,
    "capacity": 10.5,
    "coordinate": { "lat": 37.544602, "lng": -122.019375 },
    "address": "5130 Morris Way "
  },
  {
    "city": "Fremont",
    "state": "CA",
    "postalCode": "94538",
    "id": 141,
    "panels": 6,
    "capacity": 9.0,
    "coordinate": { "lat": 37.5497744, "lng": -121.9881106 },
    "address": "3777 Mowry Avenue #APT 17"
  },
  {
    "city": "Union City",
    "state": "CA",
    "postalCode": "94587",
    "id": 142,
    "panels": 3,
    "capacity": 4.5,
    "coordinate": { "lat": 37.602458, "lng": -122.046613 },
    "address": "1701 Atlantic Street "
  },
  {
    "city": "Union City",
    "state": "CA",
    "postalCode": "94587",
    "id": 143,
    "panels": 4,
    "capacity": 6.0,
    "coordinate": { "lat": 37.5927298, "lng": -122.071967 },
    "address": "31770 Alvarado Boulevard #102"
  },
  {
    "city": "Castro Valley",
    "state": "CA",
    "postalCode": "94552",
    "id": 144,
    "panels": 4,
    "capacity": 6.0,
    "coordinate": { "lat": 37.6788246, "lng": -122.0341169 },
    "address": "25793 Durrwood Court "
  },
  {
    "city": "Berkeley",
    "state": "CA",
    "postalCode": "94707",
    "id": 145,
    "panels": 6,
    "capacity": 9.0,
    "coordinate": { "lat": 37.897449, "lng": -122.28256 },
    "address": "1761 Thousand Oaks Boulevard M"
  },
  {
    "city": "Berkeley",
    "state": "CA",
    "postalCode": "94702",
    "id": 146,
    "panels": 10,
    "capacity": 15.0,
    "coordinate": { "lat": 37.859962, "lng": -122.286565 },
    "address": "1209 Parker Street "
  },
  {
    "city": "Livermore",
    "state": "CA",
    "postalCode": "94550",
    "id": 147,
    "panels": 4,
    "capacity": 6.0,
    "coordinate": { "lat": 37.6805701, "lng": -121.7680214 },
    "address": "266 South J Street "
  },
  {
    "city": "Fremont",
    "state": "CA",
    "postalCode": "94536",
    "id": 148,
    "panels": 6,
    "capacity": 9.0,
    "coordinate": { "lat": 37.5583435, "lng": -121.9995133 },
    "address": "3526 Sutton Loop "
  },
  {
    "city": "Oakland",
    "state": "CA",
    "postalCode": "94607",
    "id": 149,
    "panels": 6,
    "capacity": 9.0,
    "coordinate": { "lat": 37.817176, "lng": -122.276749 },
    "address": "856 Milton Street "
  },
  {
    "city": "Fremont",
    "state": "CA",
    "postalCode": "94536",
    "id": 150,
    "panels": 9,
    "capacity": 13.5,
    "coordinate": { "lat": 37.576224, "lng": -121.979386 },
    "address": "37608 2nd Street "
  },
  {
    "city": "San Leandro",
    "state": "CA",
    "postalCode": "94578",
    "id": 151,
    "panels": 7,
    "capacity": 10.5,
    "coordinate": { "lat": 37.6949779, "lng": -122.1311145 },
    "address": "15267 Hesperian Boulevard #32"
  },
  {
    "city": "Newark",
    "state": "CA",
    "postalCode": "94560",
    "id": 152,
    "panels": 9,
    "capacity": 13.5,
    "coordinate": { "lat": 37.53467699999999, "lng": -122.047933 },
    "address": "36360 Beech Place "
  },
  {
    "city": "Fremont",
    "state": "CA",
    "postalCode": "94536",
    "id": 153,
    "panels": 9,
    "capacity": 13.5,
    "coordinate": { "lat": 37.560886, "lng": -122.021195 },
    "address": "4253 San Juan Avenue "
  },
  {
    "city": "Fremont",
    "state": "CA",
    "postalCode": "94539",
    "id": 154,
    "panels": 3,
    "capacity": 4.5,
    "coordinate": { "lat": 37.5192549, "lng": -121.926948 },
    "address": "43949 South Moray Street "
  },
  {
    "city": "Oakland",
    "state": "CA",
    "postalCode": "94611",
    "id": 155,
    "panels": 2,
    "capacity": 3.0,
    "coordinate": { "lat": 37.8243896, "lng": -122.2508859 },
    "address": "1 Kelton Court #4H"
  },
  {
    "city": "Berkeley",
    "state": "CA",
    "postalCode": "94709",
    "id": 156,
    "panels": 6,
    "capacity": 9.0,
    "coordinate": { "lat": 37.87633599999999, "lng": -122.2662512 },
    "address": "1725 Oxford Street #R 108"
  },
  {
    "city": "Berkeley",
    "state": "CA",
    "postalCode": "94702",
    "id": 157,
    "panels": 8,
    "capacity": 12.0,
    "coordinate": { "lat": 37.857695, "lng": -122.284908 },
    "address": "2708 Mabel Street M"
  },
  {
    "city": "San Leandro",
    "state": "CA",
    "postalCode": "94578",
    "id": 158,
    "panels": 7,
    "capacity": 10.5,
    "coordinate": { "lat": 37.7168246, "lng": -122.1336681 },
    "address": "1780 142nd Avenue "
  },
  {
    "city": "Oakland",
    "state": "CA",
    "postalCode": "94609",
    "id": 159,
    "panels": 8,
    "capacity": 12.0,
    "coordinate": { "lat": 37.835259, "lng": -122.2688057 },
    "address": "775 47th Street "
  },
  {
    "city": "Berkeley",
    "state": "CA",
    "postalCode": "94702",
    "id": 160,
    "panels": 5,
    "capacity": 7.5,
    "coordinate": { "lat": 37.8683866, "lng": -122.290025 },
    "address": "1139 Addison Street #R 1"
  },
  {
    "city": "Berkeley",
    "state": "CA",
    "postalCode": "94709",
    "id": 161,
    "panels": 6,
    "capacity": 9.0,
    "coordinate": { "lat": 37.875242, "lng": -122.262537 },
    "address": "1820 Scenic Avenue "
  },
  {
    "city": "Oakland",
    "state": "CA",
    "postalCode": "94609",
    "id": 162,
    "panels": 3,
    "capacity": 4.5,
    "coordinate": { "lat": 37.849964, "lng": -122.266668 },
    "address": "725 65th Street "
  },
  {
    "city": "San Leandro",
    "state": "CA",
    "postalCode": "94577",
    "id": 163,
    "panels": 6,
    "capacity": 9.0,
    "coordinate": { "lat": 37.7159947, "lng": -122.1460405 },
    "address": "2399 East 14th Street #29"
  },
  {
    "city": "Fremont",
    "state": "CA",
    "postalCode": "94539",
    "id": 164,
    "panels": 10,
    "capacity": 15.0,
    "coordinate": { "lat": 37.5203849, "lng": -121.9236162 },
    "address": "649 Praderia Circle "
  },
  {
    "city": "Castro Valley",
    "state": "CA",
    "postalCode": "94552",
    "id": 165,
    "panels": 5,
    "capacity": 7.5,
    "coordinate": { "lat": 37.688608, "lng": -122.042969 },
    "address": "22709 Canyon Terrace Drive #2"
  },
  {
    "city": "Oakland",
    "state": "CA",
    "postalCode": "94610",
    "id": 166,
    "panels": 8,
    "capacity": 12.0,
    "coordinate": { "lat": 37.8064419, "lng": -122.248422 },
    "address": "474 Merritt Avenue "
  },
  {
    "city": "Concord",
    "state": "CA",
    "postalCode": "94519",
    "id": 167,
    "panels": 2,
    "capacity": 3.0,
    "coordinate": { "lat": 37.976075, "lng": -122.021196 },
    "address": "3072 The Alameda "
  },
  {
    "city": "San Leandro",
    "state": "CA",
    "postalCode": "94579",
    "id": 168,
    "panels": 5,
    "capacity": 7.5,
    "coordinate": { "lat": 37.7017199, "lng": -122.1576841 },
    "address": "14347 Corvallis Street "
  },
  {
    "city": "Oakland",
    "state": "CA",
    "postalCode": "94611",
    "id": 169,
    "panels": 2,
    "capacity": 3.0,
    "coordinate": { "lat": 37.823278, "lng": -122.255305 },
    "address": "31 Yosemite Avenue "
  },
  {
    "city": "Alameda",
    "state": "CA",
    "postalCode": "94501",
    "id": 170,
    "panels": 8,
    "capacity": 12.0,
    "coordinate": { "lat": 37.7774427, "lng": -122.2641515 },
    "address": "1818 Bay Street "
  },
  {
    "city": "Berkeley",
    "state": "CA",
    "postalCode": "94705",
    "id": 171,
    "panels": 4,
    "capacity": 6.0,
    "coordinate": { "lat": 37.8588565, "lng": -122.2442037 },
    "address": "3008 Russell Street #R 1"
  },
  {
    "city": "Dublin",
    "state": "CA",
    "postalCode": "94568",
    "id": 172,
    "panels": 2,
    "capacity": 3.0,
    "coordinate": { "lat": 37.7203643, "lng": -121.8472135 },
    "address": "2348 Cantalise Drive "
  },
  {
    "city": "Livermore",
    "state": "CA",
    "postalCode": "94550",
    "id": 173,
    "panels": 4,
    "capacity": 6.0,
    "coordinate": { "lat": 37.655627, "lng": -121.77304 },
    "address": "1679 Frederick Michael Way "
  },
  {
    "city": "Hayward",
    "state": "CA",
    "postalCode": "94541",
    "id": 174,
    "panels": 9,
    "capacity": 13.5,
    "coordinate": { "lat": 37.669022, "lng": -122.065331 },
    "address": "24647 Patricia Court "
  },
  {
    "city": "Fremont",
    "state": "CA",
    "postalCode": "94536",
    "id": 175,
    "panels": 10,
    "capacity": 15.0,
    "coordinate": { "lat": 37.551937, "lng": -122.021022 },
    "address": "4770 Balboa Way "
  },
  {
    "city": "Berkeley",
    "state": "CA",
    "postalCode": "94705",
    "id": 176,
    "panels": 8,
    "capacity": 12.0,
    "coordinate": { "lat": 37.8619142, "lng": -122.2237384 },
    "address": "7144 Marlborough Terrace "
  },
  {
    "city": "Hayward",
    "state": "CA",
    "postalCode": "94544",
    "id": 177,
    "panels": 10,
    "capacity": 15.0,
    "coordinate": { "lat": 37.6324522, "lng": -122.0672661 },
    "address": "512 Tennyson Road "
  },
  {
    "city": "Union City",
    "state": "CA",
    "postalCode": "94587",
    "id": 178,
    "panels": 5,
    "capacity": 7.5,
    "coordinate": { "lat": 37.608898, "lng": -122.029517 },
    "address": "152 Teddy Drive "
  },
  {
    "city": "Fremont",
    "state": "CA",
    "postalCode": "94538",
    "id": 179,
    "panels": 10,
    "capacity": 15.0,
    "coordinate": { "lat": 37.4711524, "lng": -121.9288008 },
    "address": "47634 Kato Road "
  },
  {
    "city": "Berkeley",
    "state": "CA",
    "postalCode": "94705",
    "id": 180,
    "panels": 9,
    "capacity": 13.5,
    "coordinate": { "lat": 37.854131, "lng": -122.252442 },
    "address": "2703 Woolsey Street #R 1"
  },
  {
    "city": "Berkeley",
    "state": "CA",
    "postalCode": "94709",
    "id": 181,
    "panels": 5,
    "capacity": 7.5,
    "coordinate": { "lat": 37.879558, "lng": -122.266155 },
    "address": "1528 Spruce Street M"
  },
  {
    "city": "Berkeley",
    "state": "CA",
    "postalCode": "94708",
    "id": 182,
    "panels": 10,
    "capacity": 15.0,
    "coordinate": { "lat": 37.8880229, "lng": -122.256999 },
    "address": "1194 Cragmont Avenue M"
  },
  {
    "city": "Fremont",
    "state": "CA",
    "postalCode": "94539",
    "id": 183,
    "panels": 2,
    "capacity": 3.0,
    "coordinate": { "lat": 37.4924962, "lng": -121.9246934 },
    "address": "46710 Crawford Street #APT 32"
  },
  {
    "city": "Fremont",
    "state": "CA",
    "postalCode": "94538",
    "id": 184,
    "panels": 8,
    "capacity": 12.0,
    "coordinate": { "lat": 37.5384851, "lng": -121.9855489 },
    "address": "39247 Sundale Drive "
  },
  {
    "city": "Fremont",
    "state": "CA",
    "postalCode": "94538",
    "id": 185,
    "panels": 7,
    "capacity": 10.5,
    "coordinate": { "lat": 37.537485, "lng": -121.9558629 },
    "address": "40902 Ingersoll Terrace #APT 205"
  },
  {
    "city": "Pleasanton",
    "state": "CA",
    "postalCode": "94588",
    "id": 186,
    "panels": 8,
    "capacity": 12.0,
    "coordinate": { "lat": 37.661416, "lng": -121.908019 },
    "address": "8063 Regency Drive "
  },
  {
    "city": "San Leandro",
    "state": "CA",
    "postalCode": "94579",
    "id": 187,
    "panels": 2,
    "capacity": 3.0,
    "coordinate": { "lat": 37.695385, "lng": -122.156506 },
    "address": "1383 Purdue Street "
  },
  {
    "city": "Berkeley",
    "state": "CA",
    "postalCode": "94703",
    "id": 188,
    "panels": 6,
    "capacity": 9.0,
    "coordinate": { "lat": 37.8589787, "lng": -122.2757415 },
    "address": "2704 McGee Avenue R"
  },
  {
    "city": "Hayward",
    "state": "CA",
    "postalCode": "94545",
    "id": 189,
    "panels": 4,
    "capacity": 6.0,
    "coordinate": { "lat": 37.648362, "lng": -122.111063 },
    "address": "1265 Xavier Avenue "
  },
  {
    "city": "Oakland",
    "state": "CA",
    "postalCode": "94605",
    "id": 190,
    "panels": 5,
    "capacity": 7.5,
    "coordinate": { "lat": 37.7587409, "lng": -122.1349653 },
    "address": "10400 Royal Oak Road "
  },
  {
    "city": "Oakland",
    "state": "CA",
    "postalCode": "94606",
    "id": 191,
    "panels": 2,
    "capacity": 3.0,
    "coordinate": { "lat": 37.8014543, "lng": -122.239441 },
    "address": "2640 8th Avenue C"
  },
  {
    "city": "San Leandro",
    "state": "CA",
    "postalCode": "94578",
    "id": 192,
    "panels": 6,
    "capacity": 9.0,
    "coordinate": { "lat": 37.70656, "lng": -122.108047 },
    "address": "2400 Easy Street "
  },
  {
    "city": "Oakland",
    "state": "CA",
    "postalCode": "94605",
    "id": 193,
    "panels": 3,
    "capacity": 4.5,
    "coordinate": { "lat": 37.767338, "lng": -122.167775 },
    "address": "7725 Ney Avenue "
  },
  {
    "city": "Hayward",
    "state": "CA",
    "postalCode": "94544",
    "id": 194,
    "panels": 3,
    "capacity": 4.5,
    "coordinate": { "lat": 37.6410274, "lng": -122.0560558 },
    "address": "826 Webster Street "
  },
  {
    "city": "Oakland",
    "state": "CA",
    "postalCode": "94603",
    "id": 195,
    "panels": 6,
    "capacity": 9.0,
    "coordinate": { "lat": 37.745714, "lng": -122.176955 },
    "address": "9300 C Street "
  },
  {
    "city": "Antioch",
    "state": "CA",
    "postalCode": "94509",
    "id": 196,
    "panels": 6,
    "capacity": 9.0,
    "coordinate": { "lat": 37.9930596, "lng": -121.8244023 },
    "address": "1106 Mission Drive "
  },
  {
    "city": "Hayward",
    "state": "CA",
    "postalCode": "94544",
    "id": 197,
    "panels": 4,
    "capacity": 6.0,
    "coordinate": { "lat": 37.626108, "lng": -122.072898 },
    "address": "28250 Dickens Avenue "
  },
  {
    "city": "Livermore",
    "state": "CA",
    "postalCode": "94550",
    "id": 198,
    "panels": 8,
    "capacity": 12.0,
    "coordinate": { "lat": 37.6871239, "lng": -121.7409406 },
    "address": "4540 Phyllis Court "
  },
  {
    "city": "Fremont",
    "state": "CA",
    "postalCode": "94536",
    "id": 199,
    "panels": 6,
    "capacity": 9.0,
    "coordinate": { "lat": 37.5742662, "lng": -122.026342 },
    "address": "3365 Wyndham Drive "
  },
  {
    "city": "Alameda",
    "state": "CA",
    "postalCode": "94502",
    "id": 200,
    "panels": 4,
    "capacity": 6.0,
    "coordinate": { "lat": 37.7356811, "lng": -122.2349598 },
    "address": "514 Flower Lane "
  },
  {
    "city": "Oakland",
    "state": "CA",
    "postalCode": "94621",
    "id": 201,
    "panels": 2,
    "capacity": 3.0,
    "coordinate": { "lat": 37.75841, "lng": -122.175261 },
    "address": "1736 81st Avenue #1"
  },
  {
    "city": "Oakland",
    "state": "CA",
    "postalCode": "94601",
    "id": 202,
    "panels": 10,
    "capacity": 15.0,
    "coordinate": { "lat": 37.769842, "lng": -122.200969 },
    "address": "5397 Wentworth Avenue "
  },
  {
    "city": "Fremont",
    "state": "CA",
    "postalCode": "94536",
    "id": 203,
    "panels": 2,
    "capacity": 3.0,
    "coordinate": { "lat": 37.5376257, "lng": -122.0104815 },
    "address": "38252 Farwell Drive "
  },
  {
    "city": "Oakland",
    "state": "CA",
    "postalCode": "94602",
    "id": 204,
    "panels": 5,
    "capacity": 7.5,
    "coordinate": { "lat": 37.809976, "lng": -122.208322 },
    "address": "2014 Clemens Road "
  },
  {
    "city": "Union City",
    "state": "CA",
    "postalCode": "94587",
    "id": 205,
    "panels": 9,
    "capacity": 13.5,
    "coordinate": { "lat": 37.5727239, "lng": -122.0765151 },
    "address": "32512 Christine Drive "
  },
  {
    "city": "Berkeley",
    "state": "CA",
    "postalCode": "94709",
    "id": 206,
    "panels": 4,
    "capacity": 6.0,
    "coordinate": { "lat": 37.8754289, "lng": -122.259581 },
    "address": "2511 Hearst Avenue #R 113"
  },
  {
    "city": "Union City",
    "state": "CA",
    "postalCode": "94587",
    "id": 207,
    "panels": 10,
    "capacity": 15.0,
    "coordinate": { "lat": 37.5752359, "lng": -122.07283 },
    "address": "32532 Jean Drive "
  },
  {
    "city": "San Leandro",
    "state": "CA",
    "postalCode": "94578",
    "id": 208,
    "panels": 2,
    "capacity": 3.0,
    "coordinate": { "lat": 37.708643, "lng": -122.124605 },
    "address": "1772 150th Avenue "
  },
  {
    "city": "Piedmont",
    "state": "CA",
    "postalCode": "94610",
    "id": 209,
    "panels": 8,
    "capacity": 12.0,
    "coordinate": { "lat": 37.816922, "lng": -122.235478 },
    "address": "1 Portsmouth Road "
  },
  {
    "city": "Oakland",
    "state": "CA",
    "postalCode": "94605",
    "id": 210,
    "panels": 5,
    "capacity": 7.5,
    "coordinate": { "lat": 37.7724559, "lng": -122.1773575 },
    "address": "6630 MacArthur Boulevard #19"
  },
  {
    "city": "Berkeley",
    "state": "CA",
    "postalCode": "94702",
    "id": 211,
    "panels": 7,
    "capacity": 10.5,
    "coordinate": { "lat": 37.87654149999999, "lng": -122.2926347 },
    "address": "1481 Stannage Avenue R"
  },
  {
    "city": "Union City",
    "state": "CA",
    "postalCode": "94587",
    "id": 212,
    "panels": 3,
    "capacity": 4.5,
    "coordinate": { "lat": 37.601043, "lng": -122.019351 },
    "address": "33655 5th Street "
  },
  {
    "city": "Union City",
    "state": "CA",
    "postalCode": "94587",
    "id": 213,
    "panels": 5,
    "capacity": 7.5,
    "coordinate": { "lat": 37.60187639999999, "lng": -122.0648031 },
    "address": "31250 Courthouse Drive "
  },
  {
    "city": "Fremont",
    "state": "CA",
    "postalCode": "94555",
    "id": 214,
    "panels": 8,
    "capacity": 12.0,
    "coordinate": { "lat": 37.5609018, "lng": -122.0567745 },
    "address": "5472 Sunstar Common "
  },
  {
    "city": "Rohnert Park",
    "state": "CA",
    "postalCode": "94928",
    "id": 215,
    "panels": 5,
    "capacity": 7.5,
    "coordinate": { "lat": 38.367468, "lng": -122.687717 },
    "address": "4493 Heath Circle "
  }
]
